satname,norad_id,inclination_deg,eccentricity,mean_motion_rev_per_day,perigee_km,apogee_km,l1,l2
STARLINK-1298,45413,53.0513,0.0010171,15.41862102,433.67844617483206,447.54914904733323,1 45413U 20019BF  25260.19072743  .00072114  00000+0  16647-2 0  9997,2 45413  53.0513 184.3508 0010171  84.2164 276.0000 15.41862102303966
STARLINK-1309,45414,53.0524,0.000192,15.06392036,545.9062949492081,548.5656381683666,1 45414U 20019BG  25260.23083523 -.00001770  00000+0 -99974-4 0  9999,2 45414  53.0524 195.3047 0001920  96.5748 263.5460 15.06392036303703
STARLINK-1316,45415,53.0544,0.0001417,15.06385572,546.2744498765605,548.2371061898548,1 45415U 20019BH  25260.25663914 -.00002397  00000+0 -14216-3 0  9991,2 45415  53.0544 195.1892 0001417  92.5516 267.5636 15.06385572303742
STARLINK-1318,45416,53.053,0.000113,15.55162397,400.91448302459776,402.446721802743,1 45416U 20019BJ  25260.03199631  .00034694  00000+0  51010-3 0  9994,2 45416  53.0530 180.0565 0001130 117.8439 242.2686 15.55162397303922
STARLINK-1286,45417,53.0506,0.0001504,15.06405562,546.1529414025099,548.2360811210974,1 45417U 20019BK  25259.63094014 -.00000622  00000+0 -22824-4 0  9996,2 45417  53.0506 228.0009 0001504  91.8596 268.2565 15.06405562303487
STARLINK-1308,45419,53.0501,0.0001579,15.0639673,546.1280659156528,548.3150941552285,1 45419U 20019BM  25259.62725014 -.00000109  00000+0  11597-4 0  9992,2 45419  53.0501 228.0164 0001579  88.3197 271.7973 15.06396730303237
STARLINK-1329,45531,53.0558,0.0001576,15.06383872,546.1695456534671,548.3524310994044,1 45531U 20025A   25260.12670910 -.00002020  00000+0 -11681-3 0  9993,2 45531  53.0558 165.7728 0001576  83.9454 276.1715 15.06383872298937
STARLINK-1338,45532,53.0538,0.000139,15.06385119,546.29453664634,548.2197962246082,1 45532U 20025B   25260.00507346 -.00000794  00000+0 -34438-4 0  9995,2 45532  53.0538 166.3186 0001390  89.1309 270.9840 15.06385119298917
STARLINK-1350,45535,53.0732,0.0002937,15.30919261,471.0561275805503,475.0805255893865,1 45535U 20025E   25260.04614422  .00010269  00000+0  35053-3 0  9995,2 45535  53.0732 125.4800 0002937 111.8468 248.2845 15.30919261299510
STARLINK-1362,45538,53.0534,0.0001332,15.06381876,546.3446421179615,548.1895697717864,1 45538U 20025H   25260.03726145 -.00004195  00000+0 -26300-3 0  9991,2 45538  53.0534 165.8972 0001332 101.3156 258.7983 15.06381876298928
STARLINK-1368,45540,53.0552,0.0001344,15.0638201,546.3359209893279,548.1974695026101,1 45540U 20025K   25260.04193555 -.00002116  00000+0 -12325-3 0  9991,2 45540  53.0552 166.1562 0001344  98.2267 261.8875 15.06382010298915
STARLINK-1371,45542,53.0553,0.0001208,15.06387611,546.412942006501,548.086115391834,1 45542U 20025M   25260.14513199 -.00000672  00000+0 -26212-4 0  9990,2 45542  53.0553 165.6914 0001208  96.7712 263.3414 15.06387611298930
STARLINK-1372,45543,53.0545,0.0001396,15.06380892,546.303334991062,548.2369086594754,1 45543U 20025N   25260.18199782 -.00000645  00000+0 -24409-4 0  9999,2 45543  53.0545 165.5247 0001396  96.1145 264.0003 15.06380892298039
STARLINK-1373,45544,53.055,0.0001921,15.06383835,545.9307328027808,548.5914707534848,1 45544U 20025P   25260.13408379 -.00004703  00000+0 -29716-3 0  9994,2 45544  53.0550 165.7429 0001921  82.2937 277.8270 15.06383835298936
STARLINK-1294,45551,53.0513,0.000507,15.50046817,413.14432275179297,420.0341751682381,1 45551U 20025W   25260.00002315  .00164307  00000+0  28251-2 0  9995,2 45551  53.0513 115.0331 0005070 182.6252 338.8028 15.50046817  5915
STARLINK-1323,45553,53.0369,0.0006551,15.87333709,305.38038947279074,314.14287426026203,1 45553U 20025Y   25260.25009259  .00162369  00000+0  59549-3 0  9999,2 45553  53.0369  97.7866 0006551  86.0950 237.1800 15.87333709  6001
STARLINK-1325,45554,53.0607,6.79e-05,15.45903405,428.2627022133547,429.1870740577624,1 45554U 20025Z   25259.89094658  .00051018  00000+0  10345-2 0  9993,2 45554  53.0607 107.1901 0000679 220.5143 139.5813 15.45903405299741
STARLINK-1327,45555,53.0533,0.0001653,15.06395446,546.0807529037602,548.3702777513272,1 45555U 20025AA  25259.90738867  .00001146  00000+0  95834-4 0  9998,2 45555  53.0533 146.7581 0001653 108.9978 251.1190 15.06395446299174
STARLINK-1336,45557,53.0397,0.000815,15.82298909,318.47897562629714,329.40336304231187,1 45557U 20025AC  25260.25009259  .00166672  00000+0  77701-3 0  9994,2 45557  53.0397 103.1852 0008150 103.1045  43.0364 15.82298909  5876
STARLINK-1342,45558,53.0452,0.0004554,15.91791737,294.2289065794166,300.3088662607688,1 45558U 20025AD  25260.25009259  .00191332  24734-4  57849-3 0  9992,2 45558  53.0452 100.0648 0004554 100.1763 314.0185 15.91791737  6012
STARLINK-1355,45563,53.0303,0.000934,16.09136005,243.02457115192647,255.40446378655815,1 45563U 20025AJ  25260.52802725  .00728349  29303-3  79509-3 0  9994,2 45563  53.0303  27.6153 0009340 324.3409  35.6999 16.09136005300896
STARLINK-1356,45564,53.0534,0.0001208,15.06392166,546.3989831177987,548.0721531302579,1 45564U 20025AK  25259.97741445 -.00001295  00000+0 -68090-4 0  9992,2 45564  53.0534 146.4426 0001208  87.8541 272.2586 15.06392166299187
STARLINK-1357,45565,53.069,0.0008839,15.24680472,485.6727936617972,497.8173712071257,1 45565U 20025AL  25259.92535353  .00035810  00000+0  14353-2 0  9996,2 45565  53.0690 138.5528 0008839  95.3170 264.8835 15.24680472299291
STARLINK-1361,45567,53.0537,0.0001399,15.06385089,546.288395725921,548.2261210394163,1 45567U 20025AN  25259.99586441 -.00000832  00000+0 -36955-4 0  9991,2 45567  53.0537 146.3606 0001399  86.6724 273.4425 15.06385089299195
STARLINK-1363,45568,53.0525,0.0001345,15.06388353,546.3157903635611,548.1787187280333,1 45568U 20025AP  25260.07696717 -.00002813  00000+0 -17005-3 0  9996,2 45568  53.0525 146.2390 0001345  85.0518 275.0625 15.06388353299194
STARLINK-1366,45569,53.0548,0.0001434,15.06382289,546.2727373669877,548.2589429015388,1 45569U 20025AQ  25259.99954648  .00000044  00000+0  21839-4 0  9999,2 45569  53.0548 146.3409 0001434  79.7274 280.3876 15.06382289299188
STARLINK-1376,45570,53.0544,0.0001452,15.06387086,546.245571413473,548.2567041286811,1 45570U 20025AR  25260.12485608 -.00003637  00000+0 -22545-3 0  9990,2 45570  53.0544 145.7846 0001452 104.9378 255.1772 15.06387086299208
STARLINK-1320,45572,53.061,0.0008739,15.3471357,455.79400682216055,467.74879872853035,1 45572U 20025AT  25259.97049177  .00079097  00000+0  23020-2 0  9999,2 45572  53.0610  99.9655 0008739 154.4596 205.6839 15.34713570299856
STARLINK-1321,45573,53.053,0.0001451,15.06383164,546.2582827710603,548.2680338970076,1 45573U 20025AU  25260.04468725 -.00001745  00000+0 -98335-4 0  9994,2 45573  53.0530 136.1386 0001451  80.1944 279.9208 15.06383164299034
STARLINK-1328,45576,53.055,0.0002009,15.53477867,405.21784473843127,407.94394438846757,1 45576U 20025AX  25260.07542872  .00115554  00000+0  17710-2 0  9994,2 45576  53.0550 129.4351 0002009 140.0595 220.0563 15.53477867299446
STARLINK-1331,45578,53.0544,0.0001448,15.06387867,546.2459482296526,548.2515399411386,1 45578U 20025AZ  25259.88987782 -.00003025  00000+0 -18431-3 0  9999,2 45578  53.0544 136.8373 0001448 102.4014 257.7137 15.06387867299320
STARLINK-1333,45580,53.0527,0.000132,15.06387409,546.3359967051201,548.164298912141,1 45580U 20025BB  25259.96268094 -.00002054  00000+0 -11906-3 0  9990,2 45580  53.0527 146.5111 0001320  82.8318 277.2822 15.06387409299183
STARLINK-1335,45581,53.0543,0.0001525,15.06393543,546.1752291109506,548.2874664570254,1 45581U 20025BC  25260.09999012  .00001104  00000+0  93046-4 0  9997,2 45581  53.0543 135.8935 0001525  87.2556 272.8608 15.06393543299344
STARLINK-1337,45582,53.0537,0.0002203,15.06397587,545.6932975290692,548.7446093621575,1 45582U 20025BD  25259.85670475 -.00000389  00000+0 -71793-5 0  9991,2 45582  53.0537 136.9857 0002203  86.6506 273.4735 15.06397587299301
STARLINK-1347,45586,53.0608,0.0008112,15.23997339,488.22336886227095,499.3723960155403,1 45586U 20025BH  25260.03313207  .00047876  00000+0  19509-2 0  9998,2 45586  53.0608 128.3423 0008112 104.7612 255.4284 15.23997339299436
STARLINK-1349,45587,53.035,0.0006929,16.33156713,179.52317717475853,188.61708381619974,1 45587U 20025BJ  25261.00232108  .05683699  12232-4  88378-3 0  9997,2 45587  53.0350  75.0320 0006929 320.9349  39.1193 16.33156713300274
STARLINK-1360,45588,53.0493,0.0001434,15.659494,369.54192255279213,371.47743442018236,1 45588U 20025BK  25259.64858246  .00060542  00000+0  58363-3 0  9999,2 45588  53.0493  62.5979 0001434 324.4473  35.6446 15.65949400300333
STARLINK-1364,45589,53.0564,0.0001719,15.06394,546.0394765569436,548.4204177133688,1 45589U 20025BL  25259.92673890 -.00001038  00000+0 -50786-4 0  9990,2 45589  53.0564 136.6715 0001719 105.4626 254.6553 15.06394000299319
STARLINK-1365,45590,53.0543,0.0001298,15.06391118,546.3398663465305,548.1376938990506,1 45590U 20025BM  25260.14144628 -.00000157  00000+0  83669-5 0  9997,2 45590  53.0543 165.7068 0001298  87.6093 272.5044 15.06391118298942
STARLINK-1443,45660,53.0544,0.0001576,15.06388092,546.156613799044,548.3394951682176,1 45660U 20035D   25259.86130911 -.00003876  00000+0 -24154-3 0  9997,2 45660  53.0544 126.9667 0001576 105.2111 254.9053 15.06388092292532
STARLINK-1446,45663,53.0293,0.0007303,15.28861471,474.20666747199084,484.22251520630107,1 45663U 20035G   25259.87362444  .00053513  00000+0  18804-2 0  9994,2 45663  53.0293  97.7111 0007303 110.9372 249.2409 15.28861471292949
STARLINK-1448,45665,53.0534,0.0001479,15.06399537,546.1887177053632,548.2372362285496,1 45665U 20035J   25259.86499410 -.00000227  00000+0  36772-5 0  9991,2 45665  53.0534 126.9468 0001479  96.3909 263.7249 15.06399537292522
STARLINK-1451,45668,53.0537,0.0001376,15.06391324,546.2852171358581,548.191080376796,1 45668U 20035M   25259.86872700 -.00002097  00000+0 -12195-3 0  9990,2 45668  53.0537 127.2497 0001376  90.0125 270.1022 15.06391324292539
